PROBA-1                 
1 26958U 01049B   26196.61100230  .00001196  00000+0  80448-4 0  9995
2 26958  97.9599 206.1376 0055772  28.4548 331.9704 15.07617172347909
CUTE-1 (CO-55)          
1 27844U 03031E   26196.48745324  .00000133  00000+0  76487-4 0  9995
2 27844  98.6744 204.6909 0010836 101.9513 258.2882 14.24351670195703
CUBESAT XI-IV (CO-57)   
1 27848U 03031J   26196.49013580  .00000112  00000+0  68039-4 0  9993
2 27848  98.6774 204.3834 0010557 118.6468 241.5773 14.23634657195407
APRIZESAT 4             
1 35684U 09041D   26196.17348680  .00000322  00000+0  45241-4 0  9997
2 35684  98.1404 272.0508 0042229 229.5978 130.1548 14.83913710915519
APRIZESAT 3             
1 35686U 09041F   26196.38626186  .00000843  00000+0  77857-4 0  9998
2 35686  98.2100 350.9673 0060795 335.2868  24.5441 14.96311283920598
PROBA-2                 
1 36037U 09059B   26196.50714311  .00000062  00000+0  25039-4 0  9998
2 36037  98.2459  19.4686 0013049 187.7669 172.3328 14.54873733885645
APRIZESAT 5             
1 37792U 11044E   26196.38147948  .00000384  00000+0  55947-4 0  9994
2 37792  98.2449 130.2223 0050695 272.0902  87.4504 14.81127733802966
APRIZESAT 6             
1 37793U 11044F   26196.34067692  .00000355  00000+0  57569-4 0  9998
2 37793  98.2338 107.4128 0043042 357.8013 119.3307 14.76956881801308
PROBA-V                 
1 39159U 13021A   26196.44383699  .00000015  00000+0  24637-4 0  9995
2 39159  98.3606 173.6583 0005243  59.4292 300.7405 14.23603418685133
APRIZESAT 7             
1 39416U 13066A   26196.39636225  .00000486  00000+0  53501-4 0  9994
2 39416  97.7723 149.2138 0037233 116.6706 243.8333 14.91619358685432
APRIZESAT 8             
1 39425U 13066K   26196.39082407  .00000357  00000+0  44709-4 0  9998
2 39425  97.8230 143.4679 0045505 191.2271 168.7935 14.87696635683865
BUGSAT-1 (TITA)         
1 40014U 14033E   26196.62104623  .00003605  00000+0  19035-3 0  9992
2 40014  98.0437 290.8389 0029065  84.5787 275.8758 15.15883791660149
SAUDISAT 4              
1 40016U 14033G   26196.38761796  .00000216  00000+0  35387-4 0  9991
2 40016  97.7617 341.5528 0044245 343.4405  16.5359 14.79575661650247
APRIZESAT 9             
1 40018U 14033J   26196.30717422  .00000313  00000+0  53331-4 0  9999
2 40018  97.9094 328.8236 0067443 109.5826 251.2681 14.74252703647704
APRIZESAT 10            
1 40019U 14033K   26196.28988720  .00000283  00000+0  52397-4 0  9995
2 40019  97.9681 322.6275 0078740 183.0451 177.0287 14.70910931646385
TECHDEMOSAT-1 (TDS-1)   
1 40076U 14037H   26196.52100300  .00004375  00000+0  24736-3 0  9990
2 40076  98.3826 191.5527 0006951 157.6401 202.5132 15.13682940652513
TECHNOSAT               
1 42829U 17042E   26196.43899655  .00001660  00000+0  12049-3 0  9993
2 42829  97.4317 353.0287 0017408   2.7340 357.3979 15.05111872490953
FLYING LAPTOP           
1 42831U 17042G   26196.57996853  .00002032  00000+0  16177-3 0  9999
2 42831  97.4803 351.0446 0019688  31.3072 328.9321 15.01314628490712
HAWK-A                  
1 43765U 18099H   26196.10718699  .00004044  00000+0  16247-3 0  9991
2 43765  97.3897 247.9822 0034714 184.2471 175.8478 15.24964443417352
HAWK-B                  
1 43794U 18099AN  26196.09655298  .00003480  00000+0  14860-3 0  9998
2 43794  97.3948 247.3278 0031352 202.4031 157.5838 15.23114243417283
HAWK-C                  
1 43799U 18099AT  26196.60919951  .00004952  00000+0  17709-3 0  9999
2 43799  97.3873 249.5313 0040340 182.3474 177.7583 15.28495188418257
SALSAT                  
1 46495U 20068K   26196.46428795  .00004051  00000+0  14153-3 0  9999
2 46495  97.8855 201.2595 0009213 191.9024 168.1999 15.30174422319686
HAWK-2C                 
1 47502U 21006CT  26196.18660873  .00003724  00000+0  11192-3 0  9992
2 47502  97.2265 239.9414 0008659 100.8071 259.4148 15.34988982303790
HAWK-2A                 
1 47505U 21006CW  26196.18883189  .00004302  00000+0  12887-3 0  9997
2 47505  97.2308 240.6375 0008172 104.1808 256.0344 15.35006119303796
HAWK-2B                 
1 47508U 21006CZ  26196.50827137  .00004497  00000+0  13402-3 0  9996
2 47508  97.2176 239.2384 0008754 101.6650 258.5577 15.35139410303841
HAWK-3B                 
1 48931U 21059BE  26196.54584909  .00033868  00000+0  26118-3 0  9998
2 48931  97.6631  35.9858 0004548 196.9727 163.1384 15.71890222282307
HAWK-3C                 
1 48948U 21059BX  26196.54553288  .00033766  00000+0  26041-3 0  9994
2 48948  97.6743  41.7196 0004669 197.3571 162.7532 15.71888957282307
HAWK-3A                 
1 48957U 21059CG  26196.54542040  .00034326  00000+0  26467-3 0  9993
2 48957  97.6689  38.9016 0004630 199.6457 160.4628 15.71890745282300
HAWK-5C                 
1 52754U 22057Y   26196.54425777  .00012046  00000+0  19952-3 0  9995
2 52754  97.6615 358.0647 0002778 345.3366  14.7804 15.52334270230748
HAWK-5B                 
1 52756U 22057AA  26196.54407453  .00011722  00000+0  19421-3 0  9999
2 52756  97.6628 356.4182 0003436 330.7260  29.3799 15.52330698230748
